zpid,address,zipcode,city,state,latitude,longitude
5915208,13 Acadia St,#02127,South Boston,MA,42.337919,-71.030192
208766505,7 Acadia St,#02127,South Boston,MA,42.337818,-71.03014
5916302,12 Acadia St # 1,#02127,South Boston,MA,42.337891,-71.029802
5916302,12 Acadia St # 2,#02127,South Boston,MA,42.337891,-71.029802
5916311,79 Acadia St # 1,#02127,South Boston,MA,42.337816,-71.030187
5916311,79 Acadia St # 2,#02127,South Boston,MA,42.337816,-71.030187
5916311,79 Acadia St # 3,#02127,South Boston,MA,42.337816,-71.030187
209049664,1 Acadia St # 2,#02127,South Boston,MA,42.337948,-71.03015
209053738,3 Acadia St # 1,#02127,South Boston,MA,42.337928,-71.03014
5916311,79 Acadia St # 4,#02127,South Boston,MA,42.337816,-71.030187
8189793,125 B St UNIT 3B,#02127,South Boston,MA,42.341278,-71.05308
8185666,125 B St UNIT 4B,#02127,South Boston,MA,42.341278,-71.05308
8185361,125 B St UNIT 2B,#02127,South Boston,MA,42.341278,-71.05308
8185449,125 B St UNIT 1B,#02127,South Boston,MA,42.341278,-71.05308
5915035,2 Balmoral Park,#02127,South Boston,MA,42.331077,-71.034501
5915035,3 Balmoral Park,#02127,South Boston,MA,42.331078,-71.034581
5915035,1 Balmoral Park,#02127,South Boston,MA,42.331085,-71.034412
209356178,2 Balmoral Park # 1,#02127,South Boston,MA,42.331077,-71.034501
5915010,13 Bantry Way,#02127,South Boston,MA,42.331834,-71.031599
5915008,4 Bantry Way,#02127,South Boston,MA,42.332052,-71.031564
5915008,6 Bantry Way,#02127,South Boston,MA,42.332049,-71.031719
5915008,7 Bantry Way,#02127,South Boston,MA,42.332048,-71.031796
5915008,8 Bantry Way,#02127,South Boston,MA,42.332045,-71.031873
5915248,22 Barnard Pl,#02127,South Boston,MA,42.336748,-71.039018
5915248,18 Barnard Pl,#02127,South Boston,MA,42.336746,-71.039167
5915248,16 Barnard Pl,#02127,South Boston,MA,42.336744,-71.039258
5915248,14 Barnard Pl,#02127,South Boston,MA,42.336742,-71.039331
5915248,12 Barnard Pl,#02127,South Boston,MA,42.336742,-71.039388
5915248,8 Barnard Pl,#02127,South Boston,MA,42.336739,-71.039517
5915248,10 Barnard Pl,#02127,South Boston,MA,42.336741,-71.039445
5921291,20 Barnard Pl,#02127,South Boston,MA,42.336747,-71.039093
5915250,1 Bay State Pl,#02127,South Boston,MA,42.337875,-71.038136
5915250,8 Bay State Pl,#02127,South Boston,MA,42.337714,-71.037896
5915250,6 Bay State Pl,#02127,South Boston,MA,42.33777,-71.037904
6011226,2 Bay State Pl # 3,#02127,South Boston,MA,42.33788,-71.037906
6011226,2 Bay State Pl # 1,#02127,South Boston,MA,42.33788,-71.037906
12385099,3 Bay State Pl # 2,#02127,South Boston,MA,42.337821,-71.038134
8185444,7 Bay State Pl # 1,#02127,South Boston,MA,42.337711,-71.038141
8185636,7 Bay State Pl # 2,#02127,South Boston,MA,42.337711,-71.038141
208673298,8 Bay State Pl # 1,#02127,South Boston,MA,42.337712,-71.0379
209555025,4 Bay State Pl # 1,#02127,South Boston,MA,42.337825,-71.037905
213946017,5 Bay State Pl # 1,#02127,South Boston,MA,42.337768,-71.038134
12384800,3 Bay State Pl # 1,#02127,South Boston,MA,42.337821,-71.038134
5915093,1 Bay View Pl,#02127,South Boston,MA,42.331755,-71.039267
5915093,2 Bay View Pl,#02127,South Boston,MA,42.33176,-71.039175
5914887,9 Beckler Ave,#02127,South Boston,MA,42.333385,-71.036703
5914888,6 Beckler Ave,#02127,South Boston,MA,42.333622,-71.036845
5914888,16 Beckler Ave,#02127,South Boston,MA,42.333628,-71.036494
5914889,2 Beckler Ave,#02127,South Boston,MA,42.33362,-71.036985
5914888,4 Beckler Ave,#02127,South Boston,MA,42.333621,-71.036915
5914888,14 Beckler Ave,#02127,South Boston,MA,42.333627,-71.036564
5914888,15 Beckler Ave,#02127,South Boston,MA,42.333389,-71.03649
5914888,13 Beckler Ave,#02127,South Boston,MA,42.333387,-71.036561
5914887,7 Beckler Ave,#02127,South Boston,MA,42.333384,-71.036771
5914887,5 Beckler Ave,#02127,South Boston,MA,42.333383,-71.036844
11768630,9 Beckler Ave # 1,#02127,South Boston,MA,42.333385,-71.036703
11338929,6 Beckler Ave # 1,#02127,South Boston,MA,42.333622,-71.036845
11338993,6 Beckler Ave # 2,#02127,South Boston,MA,42.333622,-71.036845
208955188,8 Beckler Ave # 2B,#02127,South Boston,MA,42.33362,-71.036762
5914930,11 Bell Ct,#02127,South Boston,MA,42.335659,-71.055233
5914930,9 Bell Ct,#02127,South Boston,MA,42.335627,-71.055183
5914929,7 Bell Ct,#02127,South Boston,MA,42.335594,-71.055131
6709589,11 Bell Ct # 1,#02127,South Boston,MA,42.335659,-71.055233
6709622,11 Bell Ct # 2,#02127,South Boston,MA,42.335659,-71.055233
6709661,11 Bell Ct # 3,#02127,South Boston,MA,42.335659,-71.055233
5914825,3 Kemble Pl # 1,#02127,South Boston,MA,42.337795,-71.027472
5914826,3 Kemble Pl # 2,#02127,South Boston,MA,42.337795,-71.027472
19005706,17-21 Boston St,#02127,South Boston,MA,42.328948,-71.05762
24715039,30 Boston St # 1,#02127,South Boston,MA,42.328376,-71.057463
24715054,30 Boston St # 3,#02127,South Boston,MA,42.328376,-71.057463
24715071,30 Boston St FLOOR 2,#02127,South Boston,MA,42.328376,-71.057463
5915115,13 Brewster St,#02127,South Boston,MA,42.331682,-71.040565
5915114,11 Brewster St,#02127,South Boston,MA,42.331751,-71.040568
5915118,12 Brewster St,#02127,South Boston,MA,42.331723,-71.040267
5915118,10 Brewster St,#02127,South Boston,MA,42.331794,-71.040269
5915118,6 Brewster St,#02127,South Boston,MA,42.331938,-71.040277
5915114,5 Brewster St,#02127,South Boston,MA,42.331858,-71.040568
5915114,1 Brewster St,#02127,South Boston,MA,42.331954,-71.040571
5915114,3 Brewster St,#02127,South Boston,MA,42.331906,-71.040569
5915115,15 Brewster St,#02127,South Boston,MA,42.331615,-71.040561
5915117,14 Brewster St,#02127,South Boston,MA,42.33165,-71.040264
8185749,7 Brewster St # 1,#02127,South Boston,MA,42.331828,-71.04054
209528834,6 Brewster St # 1,#02127,South Boston,MA,42.331938,-71.040277
8185454,7 Brewster St # 3,#02127,South Boston,MA,42.331828,-71.04054
8185368,7 Brewster St # 2,#02127,South Boston,MA,42.331828,-71.04054
5918835,6 Burnham Pl # 2,#02127,South Boston,MA,42.336849,-71.04094
5914818,4 Burnham Pl # 2,#02127,South Boston,MA,42.33677,-71.040939
8185761,2 Burnham Pl # 3,#02127,South Boston,MA,42.336695,-71.040938
8185809,2 Burnham Pl # 1,#02127,South Boston,MA,42.336695,-71.040938
5914818,4 Burnham Pl # 3,#02127,South Boston,MA,42.33677,-71.040939
5914908,11 Burrill Pl,#02127,South Boston,MA,42.332607,-71.04045
5915315,7 Burrill Pl,#02127,South Boston,MA,42.332614,-71.040292
5915315,5 Burrill Pl,#02127,South Boston,MA,42.332625,-71.040219
5914908,16 Burrill Pl,#02127,South Boston,MA,42.33244,-71.040585
8779330,15 Burrill Pl # 3,#02127,South Boston,MA,42.332604,-71.040519
8779321,15 Burrill Pl # 1,#02127,South Boston,MA,42.332604,-71.040519
6709616,11 Burrill Pl # 3,#02127,South Boston,MA,42.332607,-71.04045
6304159,14 Burrill Pl # 3,#02127,South Boston,MA,42.332441,-71.040515
6739614,11 Burrill Pl # 1,#02127,South Boston,MA,42.332607,-71.04045
8779420,19 Burrill Pl # 1,#02127,South Boston,MA,42.332602,-71.040659
8779639,17 Burrill Pl # 2,#02127,South Boston,MA,42.332603,-71.040589
8779629,17 Burrill Pl # 3,#02127,South Boston,MA,42.332603,-71.040589
8779614,17 Burrill Pl # 1,#02127,South Boston,MA,42.332603,-71.040589
8779401,19 Burrill Pl # 3,#02127,South Boston,MA,42.332602,-71.040659
209246884,10 Boston St # 3C,#02127,South Boston,MA,42.3289,-71.05725
5915289,1 Church Ave,#02127,South Boston,MA,42.33764,-71.050099
209065905,2 Church Ave,#02127,South Boston,MA,42.337808,-71.04983
19005185,8-12 City Point Ct,#02127,South Boston,MA,42.33803,-71.028705
5921137,4 City Point Ct,#02127,South Boston,MA,42.338238,-71.028604
5921137,6 City Point Ct,#02127,South Boston,MA,42.338229,-71.028604
19005185,14-18 City Point Ct,#02127,South Boston,MA,42.337924,-71.028692
5914825,9 City Point Ct,#02127,South Boston,MA,42.337893,-71.028907
5914825,5 City Point Ct,#02127,South Boston,MA,42.338063,-71.028911
5914825,1 City Point Ct,#02127,South Boston,MA,42.338144,-71.028914
5914825,7 City Point Ct,#02127,South Boston,MA,42.337983,-71.028909
5914892,8 Colebrook St,#02127,South Boston,MA,42.332696,-71.042048
5914890,13 Colebrook St,#02127,South Boston,MA,42.332484,-71.042159
5914891,9 Colebrook St,#02127,South Boston,MA,42.332485,-71.042036
5914890,11 Colebrook St,#02127,South Boston,MA,42.332485,-71.042098
5914891,1 Colebrook St,#02127,South Boston,MA,42.332527,-71.041766
5914890,19 Colebrook St,#02127,South Boston,MA,42.33248,-71.042335
5914891,5 Colebrook St,#02127,South Boston,MA,42.332487,-71.041915
5914891,7 Colebrook St,#02127,South Boston,MA,42.332488,-71.041975
5914891,3 Colebrook St,#02127,South Boston,MA,42.33249,-71.041854
5914890,15 Colebrook St,#02127,South Boston,MA,42.332483,-71.042219
5914944,1836 Columbia Rd,#02127,South Boston,MA,42.332685,-71.027438
19005666,1690-1692 Columbia Rd,#02127,South Boston,MA,42.329978,-71.0342
19005604,1540-1542 Columbia Rd,#02127,South Boston,MA,42.330387,-71.039134
19005302,1840 Columbia Rd,#02127,South Boston,MA,42.332708,-71.027272
5914876,1754 Columbia Rd # 3,#02127,South Boston,MA,42.330527,-71.032456
5915015,1790 Columbia Rd # A,#02127,South Boston,MA,42.331908,-71.029493
5915015,1790 Columbia Rd # C,#02127,South Boston,MA,42.331908,-71.029493
5915127,1350 Columbia Rd,#02127,South Boston,MA,42.330881,-71.045702
5915119,1512 Columbia Rd,#02127,South Boston,MA,42.330701,-71.040226
5915070,1640 Columbia Rd,#02127,South Boston,MA,42.329726,-71.036125
5915014,1776 Columbia Rd,#02127,South Boston,MA,42.331296,-71.030719
19005517,33-35 Covington St,#02127,South Boston,MA,42.331655,-71.046002
19005517,29-31 Covington St,#02127,South Boston,MA,42.331561,-71.045998
5915172,30 Covington St,#02127,South Boston,MA,42.331547,-71.046418
5915171,36 Covington St,#02127,South Boston,MA,42.33171,-71.046423
5915145,8 Covington St,#02127,South Boston,MA,42.330812,-71.046437
5915172,34 Covington St,#02127,South Boston,MA,42.331651,-71.04642
211172138,31 Covington St # 1,#02127,South Boston,MA,42.331561,-71.045998
5915048,1 Cutler Ct,#02127,South Boston,MA,42.33364,-71.034355
5915048,3 Cutler Ct,#02127,South Boston,MA,42.333575,-71.034354
10298825,2 Cutler Ct,#02127,South Boston,MA,42.333612,-71.034114
209631947,10 Damrell St,#02127,South Boston,MA,42.334654,-71.034769
5914972,4 Dean Way,#02127,South Boston,MA,42.335277,-71.026147
5914972,1 Dean Way,#02127,South Boston,MA,42.335305,-71.025816
5915262,29-29R Dexter St,#02127,South Boston,MA,42.3304,-71.0576
5915262,23-23R Dexter St,#02127,South Boston,MA,42.3304,-71.0576
5915262,19 Dexter St,#02127,South Boston,MA,42.330573,-71.05777
5914845,9-11R Dexter St,#02127,South Boston,MA,42.3304,-71.0576
5915262,27-27R Dexter St,#02127,South Boston,MA,42.3304,-71.0576
5915262,7 Dexter St,#02127,South Boston,MA,42.330474,-71.057386
210032560,7 Dexter St # 2,#02127,South Boston,MA,42.33047,-71.05739
5915169,16 Dixfield St,#02127,South Boston,MA,42.331865,-71.04676
214695589,11 Dixfield St,#02127,South Boston,MA,42.331623,-71.046888
5915170,6 Dixfield St,#02127,South Boston,MA,42.331857,-71.047138
213916256,2 Dixfield St,#02127,South Boston,MA,42.331854,-71.047289
5915169,14 Dixfield St,#02127,South Boston,MA,42.331863,-71.046836
5914862,17 Dixfield St,#02127,South Boston,MA,42.331636,-71.046738
5914861,26 Dixfield St,#02127,South Boston,MA,42.331868,-71.04645
5914862,21 Dixfield St,#02127,South Boston,MA,42.331639,-71.046611
5915169,10 Dixfield St,#02127,South Boston,MA,42.33186,-71.046988
5915170,8 Dixfield St,#02127,South Boston,MA,42.331859,-71.047063
5915170,4 Dixfield St,#02127,South Boston,MA,42.331856,-71.047214
5915174,7 Dixfield St,#02127,South Boston,MA,42.331651,-71.04704
5915174,9 Dixfield St,#02127,South Boston,MA,42.331636,-71.046976
211828176,7 Dixfield St # 1,#02127,South Boston,MA,42.331651,-71.04704
5921549,15 Dixfield St # 2,#02127,South Boston,MA,42.331652,-71.046812
208820079,385 Dorchester St # 1,#02127,South Boston,MA,42.330216,-71.056417
208812703,385 Dorchester St # 3V,#02127,South Boston,MA,42.330217,-71.056421
208661239,385 Dorchester St # A10V,#02127,South Boston,MA,42.330217,-71.056421
5914864,13 Douglas St,#02127,South Boston,MA,42.331039,-71.042927
5915131,7 Douglas St,#02127,South Boston,MA,42.330861,-71.042923
5915108,8 Douglas St,#02127,South Boston,MA,42.330958,-71.04259
5915131,9 Douglas St,#02127,South Boston,MA,42.3308,-71.042921
5915132,11 Douglas St,#02127,South Boston,MA,42.330737,-71.04292
213284215,3 Douglas St,#02127,South Boston,MA,42.33086,-71.043127
5918837,12 Douglas St # 1,#02127,South Boston,MA,42.330786,-71.042566
5918837,12 Douglas St # 2,#02127,South Boston,MA,42.330786,-71.042566
5918837,12 Douglas St # 3,#02127,South Boston,MA,42.330786,-71.042566
11338999,8 Douglas St # 3,#02127,South Boston,MA,42.330958,-71.04259
11338980,8 Douglas St # 2,#02127,South Boston,MA,42.330958,-71.04259
11338877,8 Douglas St # 1,#02127,South Boston,MA,42.330958,-71.04259
7133333,7 Douglas St # 3,#02127,South Boston,MA,42.330861,-71.042923
5916305,10 Douglas St # 3,#02127,South Boston,MA,42.330872,-71.04256
7148860,7 Douglas St # 1,#02127,South Boston,MA,42.330861,-71.042923
7148850,7 Douglas St # 2,#02127,South Boston,MA,42.330861,-71.042923
5915255,44 Ellery St,#02127,South Boston,MA,42.329202,-71.057926
5915255,48 Ellery St,#02127,South Boston,MA,42.329115,-71.057999
211186369,44 Ellery St # 1,#02127,South Boston,MA,42.329204,-71.057929
5915249,14 Emmet St,#02127,South Boston,MA,42.337011,-71.038863
5915243,9 Emmet St,#02127,South Boston,MA,42.336907,-71.038569
5915243,5 Emmet St,#02127,South Boston,MA,42.336791,-71.038562
24813328,1 Emmet St,#02127,South Boston,MA,42.336688,-71.038561
5915249,8 Emmet St,#02127,South Boston,MA,42.336847,-71.03886
5921138,13 Emmet St # 2,#02127,South Boston,MA,42.337017,-71.038573
5921138,13 Emmet St # 1,#02127,South Boston,MA,42.337008,-71.038545
8185880,10 Emmet St # 2,#02127,South Boston,MA,42.336902,-71.038862
8185886,10 Emmet St # 1,#02127,South Boston,MA,42.336902,-71.038862
8185897,10 Emmet St # 3,#02127,South Boston,MA,42.336902,-71.038862
211232817,8 Emmet St # 2,#02127,South Boston,MA,42.336847,-71.03886
5921137,4 Ewer St,#02127,South Boston,MA,42.334358,-71.054438
5918835,47 Farragut Rd,#02127,South Boston,MA,42.336543,-71.02541
5914967,55 Farragut Rd,#02127,South Boston,MA,42.336286,-71.025404
19005215,27-31 Farragut Rd,#02127,South Boston,MA,42.337,-71.0252
5914967,53 Farragut Rd,#02127,South Boston,MA,42.336371,-71.025406
5914967,57 Farragut Rd,#02127,South Boston,MA,42.336198,-71.025401
5914998,123 Farragut Rd,#02127,South Boston,MA,42.334295,-71.025374
5914997,105 Farragut Rd,#02127,South Boston,MA,42.334574,-71.025352
5914971,81 Farragut Rd,#02127,South Boston,MA,42.335304,-71.025422
5921144,61 Farragut Rd # 3,#02127,South Boston,MA,42.336111,-71.025399
7133335,41 Farragut Rd # 3,#02127,South Boston,MA,42.33686,-71.025423
7133342,41 Farragut Rd # 1,#02127,South Boston,MA,42.33686,-71.025423
5914844,77 Farragut Rd # 3,#02127,South Boston,MA,42.33538,-71.025427
5915079,554 E 5th St,#02127,South Boston,MA,42.334188,-71.038372
5915213,664 E 5th St,#02127,South Boston,MA,42.334111,-71.033903
19004967,636-638 E 5th St,#02127,South Boston,MA,42.334098,-71.03495
19004967,644-646 E 5th St,#02127,South Boston,MA,42.334098,-71.03478
5915317,820 E 5th St,#02127,South Boston,MA,42.334311,-71.027728
7133360,723 E 5th St # 2,#02127,South Boston,MA,42.333873,-71.030826
19004936,584-586 E 5th St,#02127,South Boston,MA,42.334068,-71.03691
8779340,721 E 5th St # 2,#02127,South Boston,MA,42.333862,-71.030921
8779631,721 E 5th St # 1,#02127,South Boston,MA,42.333862,-71.030921
19004901,484-486 E 5th St,#02127,South Boston,MA,42.333988,-71.04119
5921170,795 E 5th St # 1,#02127,South Boston,MA,42.333878,-71.028778
5914883,583 E 5th St,#02127,South Boston,MA,42.333771,-71.036989
5914837,771 E 5th St APT 3,#02127,South Boston,MA,42.333812,-71.029656
5914837,773 E 5th St # 2,#02127,South Boston,MA,42.333815,-71.029551
5914838,773 E 5th St # 3,#02127,South Boston,MA,42.333815,-71.029551
5914839,826 E 5th St APT 1,#02127,South Boston,MA,42.334233,-71.027358
5914839,826 E 5th St APT 3,#02127,South Boston,MA,42.334233,-71.027358
5921165,593 E 5th St # 2,#02127,South Boston,MA,42.333777,-71.036638
5921165,593 E 5th St # 1,#02127,South Boston,MA,42.333777,-71.036638
5915038,68 Flint Pl,#02127,South Boston,MA,42.331038,-71.033898
5915038,24 Flint Pl,#02127,South Boston,MA,42.330968,-71.033896
5914996,913 E 4th St,#02127,South Boston,MA,42.334669,-71.026671
5914996,909 E 4th St,#02127,South Boston,MA,42.334748,-71.026857
5914939,885 E 4th St,#02127,South Boston,MA,42.334647,-71.028032
5914939,881 E 4th St,#02127,South Boston,MA,42.334643,-71.028227
5914938,865 E 4th St,#02127,South Boston,MA,42.334629,-71.02894
5914938,869 E 4th St,#02127,South Boston,MA,42.334625,-71.028719
5914938,877 E 4th St,#02127,South Boston,MA,42.334639,-71.028374
5914939,879 E 4th St,#02127,South Boston,MA,42.33464,-71.028314
5914939,883 E 4th St,#02127,South Boston,MA,42.334645,-71.028123
5914939,891 E 4th St,#02127,South Boston,MA,42.334758,-71.02773
5915216,762 E 4th St,#02127,South Boston,MA,42.335032,-71.033693
5916303,3 Frederick St,#02127,South Boston,MA,42.333619,-71.053284
5916303,1 Frederick St,#02127,South Boston,MA,42.33366,-71.053223
5914948,11 Frederick St,#02127,South Boston,MA,42.333452,-71.053617
5914948,7 Frederick St,#02127,South Boston,MA,42.333554,-71.053463
5914948,9 Frederick St,#02127,South Boston,MA,42.333473,-71.053501
214695590,96 G St # 1,#02127,South Boston,MA,42.332604,-71.043879
214695590,96 G St # 2,#02127,South Boston,MA,42.332604,-71.043879
213856641,123 G St,#02127,South Boston,MA,42.331717,-71.044318
213217266,88 G St,#02127,South Boston,MA,42.332873,-71.043899
209331535,119 G St # 2,#02127,South Boston,MA,42.331834,-71.044359
212671052,32 G St,#02127,South Boston,MA,42.335068,-71.044008
211861077,149 G St # 2,#02127,South Boston,MA,42.331068,-71.044284
211000695,76 G St # 1,#02127,South Boston,MA,42.33587,-71.04417
210927239,57 G St # 1,#02127,South Boston,MA,42.334053,-71.044439
19005484,71-73 Gates St,#02127,South Boston,MA,42.331508,-71.04837
213235392,62 Gates St,#02127,South Boston,MA,42.331927,-71.048001
212026304,8 Gates St,#02127,South Boston,MA,42.333808,-71.048048
5915169,44 Gates St,#02127,South Boston,MA,42.332454,-71.048015
5914978,10 Gates St,#02127,South Boston,MA,42.333734,-71.048048
5921293,1 Gifford Pl,#02127,South Boston,MA,42.330164,-71.05465
5915182,7 Gifford Pl,#02127,South Boston,MA,42.330263,-71.054453
5914850,2 Goodwin Ct,#02127,South Boston,MA,42.32952,-71.053981
5915180,4 Goodwin Ct,#02127,South Boston,MA,42.329587,-71.05385
5915180,3 Goodwin Ct,#02127,South Boston,MA,42.329553,-71.053917
211262519,3 Grace Ct,#02127,South Boston,MA,42.3368,-71.0283
6352823,34-36 H St # 2L,#02127,South Boston,MA,42.336858,-71.04136
8185743,50 H St APT 1,#02127,South Boston,MA,42.336615,-71.041401
5914816,39 H St # 3,#02127,South Boston,MA,42.336638,-71.041868
6353127,34-36 H St # 3L,#02127,South Boston,MA,42.336858,-71.04136
8185420,50 H St APT 2,#02127,South Boston,MA,42.336615,-71.041401
8185365,50 H St APT 3,#02127,South Boston,MA,42.336615,-71.041401
5914819,60 H St # B,#02127,South Boston,MA,42.335958,-71.041393
19005574,99-101 H St,#02127,South Boston,MA,42.33429,-71.041757
19005574,95-97 H St,#02127,South Boston,MA,42.334358,-71.04171
23989416,112 H St # 2,#02127,South Boston,MA,42.333938,-71.041321
19007364,162 H St,#02127,South Boston,MA,42.33219,-71.041254
5914776,128 Tudor St APT H,#02127,South Boston,MA,42.335839,-71.052111
5915265,43 H St,#02127,South Boston,MA,42.335999,-71.041785
6352854,1 Hamlin St # 5,#02127,South Boston,MA,42.331335,-71.042325
6352928,1 Hamlin St # 4,#02127,South Boston,MA,42.331335,-71.042325
6353071,1 Hamlin St # 2,#02127,South Boston,MA,42.331335,-71.042325
5915012,2 Hardy St,#02127,South Boston,MA,42.33139,-71.032162
5915012,6 Hardy St,#02127,South Boston,MA,42.331138,-71.03217
5915010,3 Hardy St,#02127,South Boston,MA,42.331244,-71.032641
5915011,9 Hardy St,#02127,South Boston,MA,42.330832,-71.032631
5915010,7 Hardy St,#02127,South Boston,MA,42.330971,-71.032634
5915010,5 Hardy St,#02127,South Boston,MA,42.331109,-71.032638
5915010,1 Hardy St,#02127,South Boston,MA,42.331379,-71.032645
5915063,13 Hart Pl,#02127,South Boston,MA,42.331764,-71.036021
5915063,57 Hart Pl,#02127,South Boston,MA,42.331835,-71.036021
5915063,68 Hart Pl,#02127,South Boston,MA,42.331841,-71.035706
209552594,7 Hart Pl # 1H,#02127,South Boston,MA,42.331838,-71.03596
5916310,2 Henderson Ave # 1,#02127,South Boston,MA,42.333428,-71.04074
5916300,1 Henderson Ave # 2,#02127,South Boston,MA,42.333357,-71.04071
5915261,12 Humboldt Pl,#02127,South Boston,MA,42.330668,-71.057437
5915261,14 Humboldt Pl,#02127,South Boston,MA,42.330668,-71.057515
11768611,39 I St # 2,#02127,South Boston,MA,42.336798,-71.040155
10298821,37 I St # 2,#02127,South Boston,MA,42.336864,-71.040158
8185649,65 I St # 3,#02127,South Boston,MA,42.335996,-71.040186
8185609,65 I St # 2,#02127,South Boston,MA,42.335996,-71.040186
8185662,65 I St # 1,#02127,South Boston,MA,42.335996,-71.040186
5915255,15 I St,#02127,South Boston,MA,42.337543,-71.040159
5915257,61 I St,#02127,South Boston,MA,42.336122,-71.040189
11768623,39 I St # 3,#02127,South Boston,MA,42.336798,-71.040155
10298738,37 I St # 1,#02127,South Boston,MA,42.336864,-71.040158
10298791,37 I St # 3,#02127,South Boston,MA,42.336864,-71.040158
11773509,39 I St # 1,#02127,South Boston,MA,42.336798,-71.040155
5915094,184 I St,#02127,South Boston,MA,42.331908,-71.039657
5915094,182 I St,#02127,South Boston,MA,42.331962,-71.039659
19005597,207-209 I St,#02127,South Boston,MA,42.331014,-71.040011
19005597,203-205 I St,#02127,South Boston,MA,42.331088,-71.04001
5915129,3 Jason Ter,#02127,South Boston,MA,42.331483,-71.044127
5915129,4 Jason Ter,#02127,South Boston,MA,42.331589,-71.044587
5915129,1 Jason Ter,#02127,South Boston,MA,42.331482,-71.044117
5915129,2 Jason Ter,#02127,South Boston,MA,42.331757,-71.044102
5915240,3 K Street Pl,#02127,South Boston,MA,42.336045,-71.037057
5915192,9 Kemble Pl,#02127,South Boston,MA,42.33779,-71.02784
5915192,8 Kemble Pl,#02127,South Boston,MA,42.33779,-71.027777
29496861,5 Kemble Pl,#02127,South Boston,MA,42.337794,-71.027595
5914825,2 Kemble Pl,#02127,South Boston,MA,42.337797,-71.027411
5915192,4 Kemble Pl,#02127,South Boston,MA,42.337794,-71.027534
5914826,3 Kemble Pl # 2,#02127,South Boston,MA,42.337795,-71.027472
5914825,3 Kemble Pl # 1,#02127,South Boston,MA,42.337795,-71.027472
5915191,2 Kemp St,#02127,South Boston,MA,42.326597,-71.05648
5915191,4 Kemp St,#02127,South Boston,MA,42.326586,-71.05639
212038368,11 Knowlton St,#02127,South Boston,MA,42.3326,-71.05
209602596,15 Knowlton St,#02127,South Boston,MA,42.332704,-71.049993
5915160,16 Knowlton St,#02127,South Boston,MA,42.332445,-71.049579
5915176,17 Knowlton St,#02127,South Boston,MA,42.332331,-71.049921
5915161,8 Knowlton St,#02127,South Boston,MA,42.33267,-71.049587
5915175,13 Knowlton St,#02127,South Boston,MA,42.332492,-71.049926
5915161,10 Knowlton St,#02127,South Boston,MA,42.332616,-71.049579
6709612,26 Knowlton St,#02127,South Boston,MA,42.332255,-71.049614
5915161,14 Knowlton St,#02127,South Boston,MA,42.332517,-71.049578
5915161,12 Knowlton St,#02127,South Boston,MA,42.332565,-71.049581
8185589,11 Knowlton St # 3,#02127,South Boston,MA,42.332558,-71.04992
8185883,11 Knowlton St # 1,#02127,South Boston,MA,42.332558,-71.04992
8194840,11 Knowlton St # 2,#02127,South Boston,MA,42.332558,-71.04992
8185744,18-20 Knowlton St # 5,#02127,South Boston,MA,42.33225,-71.04958
19004967,106-108 L St,#02127,South Boston,MA,42.334058,-71.03509
19004962,90-92 L St,#02127,South Boston,MA,42.334328,-71.03514
19004955,158-160 L St,#02127,South Boston,MA,42.332616,-71.035109
19004955,162-164 L St,#02127,South Boston,MA,42.332544,-71.0351
19004954,166-168 L St,#02127,South Boston,MA,42.332476,-71.0351
5914808,113 L St,#02127,South Boston,MA,42.333767,-71.035503
10298754,94-96 L St # 3,#02127,South Boston,MA,42.334257,-71.035127
10298760,94-96 L St # 2,#02127,South Boston,MA,42.334257,-71.035127
211155510,30 L St # 2,#02127,South Boston,MA,42.337218,-71.03527
10298780,208-210 W 7th St # 2L,#02127,South Boston,MA,42.334101,-71.0503
5914953,5 Lark St,#02127,South Boston,MA,42.333723,-71.052774
5914849,2 Lark St,#02127,South Boston,MA,42.333699,-71.05242
5914849,7 Lark St,#02127,South Boston,MA,42.333626,-71.052838
5914953,3 Lark St,#02127,South Boston,MA,42.33379,-71.05259
24715014,7 Lark St # 2,#02127,South Boston,MA,42.333625,-71.052847
5915193,4 Lauten Pl,#02127,South Boston,MA,42.33777,-71.028247
5914826,1 Lauten Pl,#02127,South Boston,MA,42.33768,-71.028072
5915193,3 Lauten Pl,#02127,South Boston,MA,42.337802,-71.028137
5915283,14 Leeds St,#02127,South Boston,MA,42.330551,-71.056394
5915283,12 Leeds St,#02127,South Boston,MA,42.330644,-71.056334
5915282,5 Leeds St,#02127,South Boston,MA,42.330523,-71.055886
5915282,7 Leeds St,#02127,South Boston,MA,42.330497,-71.055938
5915282,9 Leeds St,#02127,South Boston,MA,42.330466,-71.056029
5915283,2 Leeds St,#02127,South Boston,MA,42.330801,-71.056031
5915283,16 Leeds St,#02127,South Boston,MA,42.330515,-71.05652
208637772,8 Leeds St,#02127,South Boston,MA,42.330702,-71.056225
214557484,3 Leeds St,#02127,South Boston,MA,42.330584,-71.055846
5914845,8 Leeds St # 3,#02127,South Boston,MA,42.330702,-71.056225
6353090,3 Leeds St # 2,#02127,South Boston,MA,42.330244,-71.056909
6709578,7 Leeds St # 2,#02127,South Boston,MA,42.330497,-71.055938
5914846,10 Leeds St # 3,#02127,South Boston,MA,42.330675,-71.05628
5914846,10 Leeds St # 2,#02127,South Boston,MA,42.330675,-71.05628
5914846,10 Leeds St # 1,#02127,South Boston,MA,42.330675,-71.05628
210429694,4 Leeds St # 1,#02127,South Boston,MA,42.330767,-71.056098
6709640,7 Leeds St # 1,#02127,South Boston,MA,42.330497,-71.055938
5914987,33 Lennon Ct,#02127,South Boston,MA,42.333003,-71.026603
5914986,25 Lennon Ct,#02127,South Boston,MA,42.333003,-71.026603
5914984,9 Lennon Ct,#02127,South Boston,MA,42.333003,-71.026603
209164087,17 Lennon Ct,#02127,South Boston,MA,42.333004,-71.0266
5915222,1 Leonard Pl,#02127,South Boston,MA,42.334446,-71.031815
5915190,7 Liberty Pl,#02127,South Boston,MA,42.328934,-71.053633
5914854,9 Liberty Pl,#02127,South Boston,MA,42.328835,-71.053629
12093714,9 Liberty Pl # 2,#02127,South Boston,MA,42.328835,-71.053629
12093742,9 Liberty Pl # 1,#02127,South Boston,MA,42.328835,-71.053629
5915154,5 Lilly St,#02127,South Boston,MA,42.334629,-71.050812
5915156,6 Lilly St,#02127,South Boston,MA,42.334789,-71.050988
19005108,14-16 Linley Ter,#02127,South Boston,MA,42.335914,-71.039133
5915241,24 Linley Ter,#02127,South Boston,MA,42.336106,-71.039103
5915241,57 Linley Ter,#02127,South Boston,MA,42.336027,-71.039444
6304144,9-11 Linley Ter # 2,#02127,South Boston,MA,42.335959,-71.039441
5914917,2 Locke Pl,#02127,South Boston,MA,42.335026,-71.040935
5914918,1 Locke Pl,#02127,South Boston,MA,42.335025,-71.041028
5915294,8 Lovis St,#02127,South Boston,MA,42.336873,-71.051174
5915296,4 Lovis St,#02127,South Boston,MA,42.336821,-71.050981
5915296,2 Lovis St,#02127,South Boston,MA,42.336905,-71.050882
5915295,7 Lovis St,#02127,South Boston,MA,42.336836,-71.051221
5915294,9 Lovis St,#02127,South Boston,MA,42.336913,-71.051128
209657807,157 M St # 3M,#02127,South Boston,MA,42.332543,-71.03347
11338924,15 M St # 2,#02127,South Boston,MA,42.33772,-71.033615
11338924,29 M St # 1,#02127,South Boston,MA,42.337171,-71.033673
11338927,29 M St # 2,#02127,South Boston,MA,42.337171,-71.033673
210400505,229 M St # 2,#02127,South Boston,MA,42.330438,-71.033482
5915050,4 M Street Pl,#02127,South Boston,MA,42.333488,-71.033918
5915165,26 Mercer St,#02127,South Boston,MA,42.332627,-71.048788
5915164,52 Mercer St,#02127,South Boston,MA,42.331778,-71.04885
5914981,2 Mercer St,#02127,South Boston,MA,42.333598,-71.04884
5915165,42 Mercer St,#02127,South Boston,MA,42.332065,-71.048774
5915160,47 Mercer St,#02127,South Boston,MA,42.33187,-71.049153
5915160,43 Mercer St,#02127,South Boston,MA,42.332004,-71.049201
5915160,39 Mercer St,#02127,South Boston,MA,42.332139,-71.04925
5915057,13 Monks St,#02127,South Boston,MA,42.332853,-71.032772
5915057,9 Monks St,#02127,South Boston,MA,42.332716,-71.03277
5915057,57 Monks St,#02127,South Boston,MA,42.332784,-71.032774
210236936,11 Monks St # 3,#02127,South Boston,MA,42.332647,-71.032767
8185584,24 Monks St # 1,#02127,South Boston,MA,42.332858,-71.032398
5921136,3 Mount Washington Pl # 1,#02127,South Boston,MA,42.330852,-71.044459
5921137,3 Mount Washington Pl # 2,#02127,South Boston,MA,42.330852,-71.044459
5921136,1 Mount Washington Pl # 3,#02127,South Boston,MA,42.330777,-71.044274
208782029,194 N St # 1N,#02127,South Boston,MA,42.33178,-71.031031
208763708,455 E 1st St # ABRFW6R0N,#02127,South Boston,MA,42.337883,-71.042024
214539573,12 National St,#02127,South Boston,MA,42.33401,-71.046575
5914974,18 National St,#02127,South Boston,MA,42.333841,-71.046573
5914975,8 National St,#02127,South Boston,MA,42.334229,-71.046559
5914974,10 National St,#02127,South Boston,MA,42.334095,-71.046576
5914974,14 National St,#02127,South Boston,MA,42.333955,-71.046552
8185425,12 National St # A,#02127,South Boston,MA,42.334022,-71.046574
8185433,12 National St # B,#02127,South Boston,MA,42.334022,-71.046574
5915238,1 Newhill Pl,#02127,South Boston,MA,42.336185,-71.03599
8779365,5 Newhill Pl # 2,#02127,South Boston,MA,42.336044,-71.035985
19007363,83-85 O St # D,#02127,South Boston,MA,42.33531,-71.029466
19007363,83-85 O St # F,#02127,South Boston,MA,42.33531,-71.029466
5921290,76 O St,#02127,South Boston,MA,42.335931,-71.029114
5914828,64 O St # 1,#02127,South Boston,MA,42.336308,-71.02906
5915317,126 O St,#02127,South Boston,MA,42.33386,-71.028965
208886834,87 Old Harbor St,#02127,South Boston,MA,42.331844,-71.04768
5915145,120 Old Harbor St,#02127,South Boston,MA,42.330759,-71.047065
19005491,99 Old Harbor St,#02127,South Boston,MA,42.33152,-71.047662
5915167,83 Old Harbor St,#02127,South Boston,MA,42.332004,-71.047622
5915167,101 Old Harbor St,#02127,South Boston,MA,42.331442,-71.04761
5915170,80 Old Harbor St,#02127,South Boston,MA,42.332256,-71.047271
5915167,85 Old Harbor St,#02127,South Boston,MA,42.331923,-71.047682
5915168,103 Old Harbor St,#02127,South Boston,MA,42.331361,-71.047609
5914976,47 Old Harbor St,#02127,South Boston,MA,42.33324,-71.047646
5914976,43 Old Harbor St,#02127,South Boston,MA,42.333357,-71.047726
5914975,17 Old Harbor St,#02127,South Boston,MA,42.334054,-71.047681
5915052,1 Onslow Ter,#02127,South Boston,MA,42.333664,-71.032033
5914996,130 P St,#02127,South Boston,MA,42.333782,-71.026881
19007258,37 P St UNIT 2,#02127,South Boston,MA,42.337002,-71.027474
5914996,132 P St,#02127,South Boston,MA,42.333716,-71.026879
214699983,151 P St # 1,#02127,South Boston,MA,42.333044,-71.027285
5914942,123 P St,#02127,South Boston,MA,42.333868,-71.027385
214695591,151 P St # 2,#02127,South Boston,MA,42.332977,-71.027372
5914940,101 P St,#02127,South Boston,MA,42.334498,-71.027355
5914939,93 P St,#02127,South Boston,MA,42.3348,-71.027353
213599285,114 P St,#02127,South Boston,MA,42.334423,-71.026963
5914939,95 P St,#02127,South Boston,MA,42.334744,-71.027347
5914940,105 P St,#02127,South Boston,MA,42.334385,-71.027363
5914942,131 P St,#02127,South Boston,MA,42.333704,-71.027381
5914942,135 P St,#02127,South Boston,MA,42.333626,-71.027325
5915005,13 Pacific St,#02127,South Boston,MA,42.333863,-71.045696
5915004,3 Pacific St,#02127,South Boston,MA,42.33418,-71.045758
5915004,2 Pacific St,#02127,South Boston,MA,42.334263,-71.045409
5915004,8 Pacific St,#02127,South Boston,MA,42.334122,-71.045393
5915004,7 Pacific St,#02127,South Boston,MA,42.334055,-71.045756
5915004,14 Pacific St,#02127,South Boston,MA,42.333969,-71.045387
5915004,10 Pacific St,#02127,South Boston,MA,42.334072,-71.045392
5915004,4 Pacific St,#02127,South Boston,MA,42.334217,-71.045407
5914858,12 Pacific St # 2,#02127,South Boston,MA,42.334021,-71.04539
6304164,1 Pacific St # 2,#02127,South Boston,MA,42.334242,-71.045762
5918836,5 Pacific St # 1,#02127,South Boston,MA,42.334114,-71.045728
5918836,5 Pacific St # 2,#02127,South Boston,MA,42.334121,-71.045758
5918836,5 Pacific St # 3,#02127,South Boston,MA,42.334121,-71.045758
6709631,8 Pacific St # 1,#02127,South Boston,MA,42.334122,-71.045393
6304126,16 Pacific St # 1,#02127,South Boston,MA,42.333914,-71.045385
6709635,8 Pacific St # 2,#02127,South Boston,MA,42.334122,-71.045393
6304124,16 Pacific St # 2,#02127,South Boston,MA,42.333917,-71.045524
5914870,2 Paige Ave # 7,#02127,South Boston,MA,42.330844,-71.037967
5914870,3 Paige Ave # 9,#02127,South Boston,MA,42.330844,-71.037967
5914870,2 Paige Ave # 8,#02127,South Boston,MA,42.330844,-71.037967
12384733,20 Patterson Way,#02127,South Boston,MA,42.331292,-71.051636
12384961,35 Patterson Way,#02127,South Boston,MA,42.330898,-71.051609
5915059,9 Peters St,#02127,South Boston,MA,42.332727,-71.032112
5915059,5 Peters St,#02127,South Boston,MA,42.332864,-71.03212
5915059,7 Peters St,#02127,South Boston,MA,42.332795,-71.032116
5915059,11 Peters St,#02127,South Boston,MA,42.332658,-71.032108
5915061,10 Peters St,#02127,South Boston,MA,42.332735,-71.031715
9013699,10 Peters St # 3,#02127,South Boston,MA,42.332735,-71.031715
6709567,9 Peters St # C,#02127,South Boston,MA,42.332729,-71.032059
6709595,9 Peters St # A,#02127,South Boston,MA,42.332729,-71.032059
6709620,9 Peters St # B,#02127,South Boston,MA,42.332727,-71.032112
10298785,7 Peters St # 3,#02127,South Boston,MA,42.332795,-71.032116
10298827,7 Peters St # 1,#02127,South Boston,MA,42.332795,-71.032116
10298800,7 Peters St # 2,#02127,South Boston,MA,42.332795,-71.032116
9013802,10 Peters St # 1,#02127,South Boston,MA,42.332735,-71.031715
9013826,10 Peters St # 2,#02127,South Boston,MA,42.332735,-71.031715
5921137,6 Peters St # 2,#02127,South Boston,MA,42.332872,-71.031723
5921137,6 Peters St # 3,#02127,South Boston,MA,42.332872,-71.031723
5921137,6 Peters St # 1,#02127,South Boston,MA,42.332872,-71.031723
6304168,12 Peters St # 2,#02127,South Boston,MA,42.332666,-71.031711
6304157,12 Peters St # 1,#02127,South Boston,MA,42.332666,-71.031711
6304158,12 Peters St # 3,#02127,South Boston,MA,42.332666,-71.031711
5915123,1 Pulaski Ave,#02127,South Boston,MA,42.336826,-71.046432
29496860,7 Pulaski Ave,#02127,South Boston,MA,42.336944,-71.046295
5915123,3 Pulaski Ave,#02127,South Boston,MA,42.336865,-71.046386
5914852,9 Rogers St,#02127,South Boston,MA,42.329738,-71.05573
5914852,7 Rogers St,#02127,South Boston,MA,42.329711,-71.055924
5914852,5 Rogers St,#02127,South Boston,MA,42.329711,-71.055924
5915186,14 Rogers St,#02127,South Boston,MA,42.329797,-71.055449
5915186,18 Rogers St,#02127,South Boston,MA,42.329714,-71.055366
5915189,43 Rogers St,#02127,South Boston,MA,42.329051,-71.055371
5914852,13 Rogers St,#02127,South Boston,MA,42.329711,-71.055924
5914852,15 Rogers St,#02127,South Boston,MA,42.329711,-71.055924
5915189,45 Rogers St,#02127,South Boston,MA,42.32898,-71.05538
5915186,16 Rogers St,#02127,South Boston,MA,42.329749,-71.055443
5914853,19 Rogers St,#02127,South Boston,MA,42.329528,-71.055575
5914852,23 Rogers St,#02127,South Boston,MA,42.329412,-71.055458
5915186,22 Rogers St,#02127,South Boston,MA,42.329608,-71.055275
5915189,50 Rogers St,#02127,South Boston,MA,42.328889,-71.055125
5915189,54 Rogers St,#02127,South Boston,MA,42.328733,-71.055139
5915186,10 Rogers St,#02127,South Boston,MA,42.329873,-71.055584
6353112,1 Ross Pl # 2,#02127,South Boston,MA,42.33371,-71.028651
6352899,1 Ross Pl # 3,#02127,South Boston,MA,42.33371,-71.028651
6352964,1 Ross Pl # 4,#02127,South Boston,MA,42.33371,-71.028651
5915112,11 Sanger St,#02127,South Boston,MA,42.331814,-71.04215
5915109,12 Sanger St,#02127,South Boston,MA,42.331822,-71.041806
5915109,16 Sanger St,#02127,South Boston,MA,42.33174,-71.041801
5915112,21 Sanger St,#02127,South Boston,MA,42.331651,-71.042141
5915111,7 Sanger St,#02127,South Boston,MA,42.331901,-71.042155
5915112,17 Sanger St,#02127,South Boston,MA,42.331732,-71.042145
8779354,20 Sanger St # 3,#02127,South Boston,MA,42.331658,-71.041797
8779371,20 Sanger St # 1,#02127,South Boston,MA,42.331658,-71.041797
8779419,20 Sanger St # 2,#02127,South Boston,MA,42.331658,-71.041797
11338897,21 Sanger St # 2,#02127,South Boston,MA,42.331651,-71.042141
11338932,21 Sanger St # 1,#02127,South Boston,MA,42.331651,-71.042141
5914832,1 Scott Pl # 4,#02127,South Boston,MA,42.334326,-71.031795
5914832,1 Scott Pl # 2,#02127,South Boston,MA,42.334326,-71.031795
208701958,1 Scott Pl # 17,#02127,South Boston,MA,42.334326,-71.031795
5914832,1 Scott Pl # 3,#02127,South Boston,MA,42.334326,-71.031795
211140532,875 E 2nd St # 2,#02127,South Boston,MA,42.337202,-71.028064
19004723,124 W 7th St # A,#02127,South Boston,MA,42.335725,-71.052787
19004724,124 W 7th St,#02127,South Boston,MA,42.335725,-71.052787
19004724,124 W 7th St # F,#02127,South Boston,MA,42.335725,-71.052787
5915036,5 Shepton Ter,#02127,South Boston,MA,42.33113,-71.033961
5915036,7 Shepton Ter,#02127,South Boston,MA,42.331128,-71.034097
5915036,10 Shepton Ter,#02127,South Boston,MA,42.331125,-71.034313
213612220,265 Silver St,#02127,South Boston,MA,42.336681,-71.048703
5915124,291 Silver St,#02127,South Boston,MA,42.335963,-71.047656
23989251,287 Silver St,#02127,South Boston,MA,42.336033,-71.047759
5915290,185 Silver St,#02127,South Boston,MA,42.338219,-71.051146
5915174,55 Silver St,#02127,South Boston,MA,42.340938,-71.055374
5915174,40 Silver St,#02127,South Boston,MA,42.341354,-71.055647
5915143,267 Silver St,#02127,South Boston,MA,42.336618,-71.048673
5915103,360 Silver St,#02127,South Boston,MA,42.335078,-71.04546
5915106,373 Silver St,#02127,South Boston,MA,42.334871,-71.045035
29496858,269-271 Silver St,#02127,South Boston,MA,42.3367,-71.0489
29496856,194 Silver St,#02127,South Boston,MA,42.338218,-71.050748
29496854,47 Silver St,#02127,South Boston,MA,42.341041,-71.055517
29496854,45 Silver St,#02127,South Boston,MA,42.341089,-71.05559
5915124,307 Silver St,#02127,South Boston,MA,42.33566,-71.047126
5915125,315 Silver St,#02127,South Boston,MA,42.335482,-71.046888
5915023,742 E 6th St,#02127,South Boston,MA,42.333346,-71.030349
5915023,770 E 6th St,#02127,South Boston,MA,42.333358,-71.029592
5915022,772 E 6th St,#02127,South Boston,MA,42.333359,-71.029527
5915022,776 E 6th St,#02127,South Boston,MA,42.333361,-71.029395
5914944,787 E 6th St,#02127,South Boston,MA,42.333079,-71.02887
5914944,785-785A E 6th St,#02127,South Boston,MA,42.333,-71.0281
5914943,794 E 6th St,#02127,South Boston,MA,42.333469,-71.028655
5914942,816 E 6th St,#02127,South Boston,MA,42.333486,-71.02771
5914839,818 E 6th St,#02127,South Boston,MA,42.333396,-71.02761
5915253,28 Boston St APT 4,#02127,South Boston,MA,42.328446,-71.057435
5915253,26 Boston St APT 1,#02127,South Boston,MA,42.328516,-71.057403
5915253,26 Boston St APT 2,#02127,South Boston,MA,42.328516,-71.057403
5915253,26 Boston St APT 3,#02127,South Boston,MA,42.328516,-71.057403
6709612,11 Boston St # 1,#02127,South Boston,MA,42.329116,-71.057571
5915254,13-13A Boston St,#02127,South Boston,MA,42.329085,-71.057569
5915252,38 Boston St,#02127,South Boston,MA,42.328136,-71.057563
19005705,20 Boston St,#02127,South Boston,MA,42.328674,-71.057421
5915112,9 Springer St,#02127,South Boston,MA,42.331861,-71.041013
5915116,14 Springer St,#02127,South Boston,MA,42.331951,-71.040739
5915115,4 Springer St,#02127,South Boston,MA,42.331681,-71.040741
5915115,2 Springer St,#02127,South Boston,MA,42.331614,-71.040738
5915112,7 Springer St,#02127,South Boston,MA,42.331818,-71.04095
6709583,8 Springer St # 1,#02127,South Boston,MA,42.331807,-71.040735
6709665,8 Springer St # 2,#02127,South Boston,MA,42.331807,-71.040735
9013668,7 Springer St # 1,#02127,South Boston,MA,42.331815,-71.041012
9013836,7 Springer St # 2,#02127,South Boston,MA,42.331815,-71.041012
8185658,12 Springer St # 3,#02127,South Boston,MA,42.331904,-71.040738
8185451,12 Springer St # 1,#02127,South Boston,MA,42.331912,-71.040773
8185397,12 Springer St # 2,#02127,South Boston,MA,42.331904,-71.040738
5915116,10 Springer St,#02127,South Boston,MA,42.331856,-71.040736
5915112,5 Springer St,#02127,South Boston,MA,42.331763,-71.041004
5915112,7 Springer St,#02127,South Boston,MA,42.331818,-71.04095
212839323,12 Springer St,#02127,South Boston,MA,42.3319,-71.0407
5915112,9 Springer St,#02127,South Boston,MA,42.331861,-71.041013
5915115,2 Springer St,#02127,South Boston,MA,42.331614,-71.040738
5915115,4 Springer St,#02127,South Boston,MA,42.331681,-71.040741
5915116,14 Springer St,#02127,South Boston,MA,42.331951,-71.040739
5915116,10 Springer St,#02127,South Boston,MA,42.331856,-71.040736
5915112,5 Springer St,#02127,South Boston,MA,42.331763,-71.041004
8185397,12 Springer St # 2,#02127,South Boston,MA,42.331904,-71.040738
8185451,12 Springer St # 1,#02127,South Boston,MA,42.331912,-71.040773
8185658,12 Springer St # 3,#02127,South Boston,MA,42.331904,-71.040738
9013836,7 Springer St # 2,#02127,South Boston,MA,42.331815,-71.041012
9013668,7 Springer St # 1,#02127,South Boston,MA,42.331815,-71.041012
6709665,8 Springer St # 2,#02127,South Boston,MA,42.331807,-71.040735
6709583,8 Springer St # 1,#02127,South Boston,MA,42.331807,-71.040735
5915022,33 Swallow St,#02127,South Boston,MA,42.333514,-71.029794
5915021,17 Swallow St,#02127,South Boston,MA,42.333505,-71.030249
5915021,7 Swallow St,#02127,South Boston,MA,42.333498,-71.030729
5915021,9 Swallow St,#02127,South Boston,MA,42.3335,-71.030634
5915022,27 Swallow St,#02127,South Boston,MA,42.333511,-71.029995
5915022,31 Swallow St,#02127,South Boston,MA,42.333513,-71.029861
5921295,5 Swallow St,#02127,South Boston,MA,42.333528,-71.03081
5915022,35 Swallow St,#02127,South Boston,MA,42.333515,-71.029726
5915022,29 Swallow St,#02127,South Boston,MA,42.333512,-71.029927
5914836,41 Swallow St # 3,#02127,South Boston,MA,42.333538,-71.029537
5914836,41 Swallow St # 1,#02127,South Boston,MA,42.333538,-71.029537
5914836,39 Swallow St # 2,#02127,South Boston,MA,42.333536,-71.029641
5914836,39 Swallow St # 3,#02127,South Boston,MA,42.333536,-71.029641
11768612,7 Swallow St # 2,#02127,South Boston,MA,42.333498,-71.030729
11768618,7 Swallow St # 1,#02127,South Boston,MA,42.333498,-71.030729
5914836,39 Swallow St # 1,#02127,South Boston,MA,42.333536,-71.029641
6304250,510 E 3rd St # 1,#02127,South Boston,MA,42.336583,-71.039447
6352849,617 E 3rd St # 1,#02127,South Boston,MA,42.336262,-71.035029
9013683,522 E 3rd St UNIT 2,#02127,South Boston,MA,42.336574,-71.038857
9013815,735 E 3rd St # 2,#02127,South Boston,MA,42.336344,-71.029944
9013866,735 E 3rd St # 3,#02127,South Boston,MA,42.336344,-71.029944
9013873,735 E 3rd St # 1,#02127,South Boston,MA,42.336344,-71.029944
10298741,535 E 3rd St # 3,#02127,South Boston,MA,42.336273,-71.038585
10298741,489 E 3rd St APT 2,#02127,South Boston,MA,42.336247,-71.040462
10298747,535 E 3rd St # 1,#02127,South Boston,MA,42.336273,-71.038585
11338877,619 E 3rd St # 3,#02127,South Boston,MA,42.336262,-71.034925
11338944,619 E 3rd St # 1,#02127,South Boston,MA,42.336262,-71.034925
5915263,7 Transit St,#02127,South Boston,MA,42.329857,-71.057534
210165094,5 Transit St # 3,#02127,South Boston,MA,42.329929,-71.057535
5915288,8 Tuckerman St,#02127,South Boston,MA,42.331206,-71.054385
5915288,10 Tuckerman St,#02127,South Boston,MA,42.331263,-71.054436
5915288,12 Tuckerman St,#02127,South Boston,MA,42.331314,-71.054483
5915288,18 Tuckerman St,#02127,South Boston,MA,42.331474,-71.054631
5915275,7 Tuckerman St,#02127,South Boston,MA,42.331416,-71.054174
5915275,35 Tuckerman St,#02127,South Boston,MA,42.331578,-71.054976
6011229,13 Tuckerman St # 2,#02127,South Boston,MA,42.331494,-71.054225
6011229,13 Tuckerman St # 1,#02127,South Boston,MA,42.331494,-71.054225
12385105,7 Tuckerman St # 2,#02127,South Boston,MA,42.331416,-71.054174
12384891,7 Tuckerman St # 1,#02127,South Boston,MA,42.331416,-71.054174
11338937,35 Tuckerman St # B,#02127,South Boston,MA,42.331578,-71.054976
208875936,35 Tuckerman St # B,#02127,South Boston,MA,42.331578,-71.054976
212269232,12 Tuckerman St # 2,#02127,South Boston,MA,42.331314,-71.054483
209812684,7 Vicksburg St,#02127,South Boston,MA,42.334654,-71.034769
24715038,7-13 Vicksburg St # 13,#02127,South Boston,MA,42.337628,-71.040418
24715050,7-13 Vicksburg St # 9,#02127,South Boston,MA,42.337628,-71.040418
24715062,7-13 Vicksburg St # 11,#02127,South Boston,MA,42.337628,-71.040418
5915040,5 Viking St,#02127,South Boston,MA,42.331973,-71.034431
5915040,8 Viking St,#02127,South Boston,MA,42.331927,-71.034155
5915040,6 Viking St,#02127,South Boston,MA,42.331977,-71.034156
5921292,2 Viking St,#02127,South Boston,MA,42.332075,-71.034158
5915041,4 Viking St,#02127,South Boston,MA,42.332028,-71.034158
5915040,7 Viking St,#02127,South Boston,MA,42.331923,-71.034427
5915040,1 Viking St,#02127,South Boston,MA,42.332069,-71.034434
5915040,3 Viking St,#02127,South Boston,MA,42.332022,-71.034434
6739614,5 Viking St # 3,#02127,South Boston,MA,42.331973,-71.034431
6709613,5 Viking St # 2,#02127,South Boston,MA,42.331973,-71.034431
6709612,5 Viking St # 1,#02127,South Boston,MA,42.331973,-71.034431
5915178,21 Vinton St,#02127,South Boston,MA,42.330096,-71.053594
5915183,28 Vinton St,#02127,South Boston,MA,42.329706,-71.053737
5915184,42 Vinton St,#02127,South Boston,MA,42.329405,-71.053293
5915183,24 Vinton St,#02127,South Boston,MA,42.329814,-71.053833
5915183,22 Vinton St,#02127,South Boston,MA,42.329871,-71.053883
5915183,16 Vinton St,#02127,South Boston,MA,42.330048,-71.054038
5915183,4 Vinton St,#02127,South Boston,MA,42.330395,-71.054343
5915183,10 Vinton St,#02127,South Boston,MA,42.330223,-71.05419
5915183,20 Vinton St,#02127,South Boston,MA,42.32993,-71.053935
5915184,32 Vinton St,#02127,South Boston,MA,42.32959,-71.053639
5915184,34 Vinton St,#02127,South Boston,MA,42.329514,-71.053586
5915184,40 Vinton St,#02127,South Boston,MA,42.329422,-71.053378
5915183,6 Vinton St,#02127,South Boston,MA,42.330335,-71.054289
5915178,25 Vinton St,#02127,South Boston,MA,42.329989,-71.053477
5915178,15 Vinton St,#02127,South Boston,MA,42.330254,-71.053699
5915179,9 Vinton St,#02127,South Boston,MA,42.330414,-71.053835
5915178,23 Vinton St,#02127,South Boston,MA,42.330051,-71.053528
5915178,27 Vinton St,#02127,South Boston,MA,42.329927,-71.053425
8185512,57 Wadleigh Pl,#02127,South Boston,MA,42.330637,-71.058713
5915181,3 Ward Ct,#02127,South Boston,MA,42.329833,-71.054171
5915180,7 Ward Ct,#02127,South Boston,MA,42.32962,-71.054071
5915180,4 Ward Ct,#02127,South Boston,MA,42.329868,-71.054105
5915181,2 Ward Ct,#02127,South Boston,MA,42.329804,-71.054234
6739425,8 Ward Ct,#02127,South Boston,MA,42.329584,-71.054142
6011230,6 Ward Ct # 1,#02127,South Boston,MA,42.329653,-71.054007
6011230,5 Ward Ct # 2,#02127,South Boston,MA,42.329687,-71.05394
210765209,1 Ward Ct # 2,#02127,South Boston,MA,42.329769,-71.054298
6011230,5 Ward Ct # 1,#02127,South Boston,MA,42.329687,-71.05394
5915099,1 Webb Park,#02127,South Boston,MA,42.332773,-71.039172
5915100,4 Webb Park,#02127,South Boston,MA,42.332681,-71.038961
5915100,2 Webb Park,#02127,South Boston,MA,42.332777,-71.038962
5915100,3 Webb Park,#02127,South Boston,MA,42.332676,-71.039169
9013858,4 Webb Park # 3,#02127,South Boston,MA,42.332681,-71.038961
9013743,4 Webb Park # 2,#02127,South Boston,MA,42.332681,-71.038961
9013766,4 Webb Park # 1,#02127,South Boston,MA,42.332681,-71.038961
5915189,16 Wendeller St,#02127,South Boston,MA,42.328671,-71.054457
10298430,8 Wendeller St,#02127,South Boston,MA,42.32889,-71.054552
5915190,4 Wendeller St,#02127,South Boston,MA,42.328971,-71.054551
11338921,8 Wendeller St # 2,#02127,South Boston,MA,42.32889,-71.054552
11338877,8 Wendeller St # 1,#02127,South Boston,MA,42.32889,-71.054552
209051174,10 Wendeller St # 9,#02127,South Boston,MA,42.328754,-71.054539
209762976,4 Wendeller St # 2,#02127,South Boston,MA,42.328971,-71.054551
24715056,15 Wendeller St # 2,#02127,South Boston,MA,42.328801,-71.054876
5915135,21 Winfield St,#02127,South Boston,MA,42.331637,-71.042743
5921292,11 Winfield St,#02127,South Boston,MA,42.331796,-71.04279
5915111,16 Winfield St,#02127,South Boston,MA,42.331727,-71.042382
5915111,20 Winfield St,#02127,South Boston,MA,42.331647,-71.042376
24715037,20 Winfield St # 3,#02127,South Boston,MA,42.331647,-71.042376
24715055,20 Winfield St # 1,#02127,South Boston,MA,42.331647,-71.042376
6739627,12 Winfield St # 2,#02127,South Boston,MA,42.33181,-71.042385
6739611,12 Winfield St # 1,#02127,South Boston,MA,42.33181,-71.042385
24715025,20 Winfield St # 2,#02127,South Boston,MA,42.331647,-71.042376
6304121,17 Winfield St # 2,#02127,South Boston,MA,42.331696,-71.042776
6739623,12 Winfield St # 3,#02127,South Boston,MA,42.33181,-71.042385
6304121,17 Winfield St # 3,#02127,South Boston,MA,42.331715,-71.042747
6304137,17 Winfield St # 1,#02127,South Boston,MA,42.331715,-71.042747
5915285,36 Woodward St,#02127,South Boston,MA,42.331254,-71.055722
5914847,48-48R Woodward St,#02127,South Boston,MA,42.3308,-71.0553
212129305,27 Woodward St APT 1,#02127,South Boston,MA,42.331324,-71.056329
5915283,2 Woodward Pl,#02127,South Boston,MA,42.331372,-71.056587
